start=new Date('2022-02-21T00:00:00.000Z').valueOf();
sats=[{"TIME_SYSTEM":"UTC","OBJECT_NAME":"STARLINK-3320","CLASSIFICATION_TYPE":"U","COUNTRY_CODE":"US","APOAPSIS":"420.826","PERIAPSIS":"418.696","ECCENTRICITY":"0.00015670","MEAN_ELEMENT_THEORY":"SGP4","EPHEMERIS_TYPE":"0","EPOCH":"2022-02-20T22:00:00.999936","MEAN_MOTION_DDOT":"0.0000000000000","SITE":"AFETR","MEAN_MOTION_DOT":"-0.00010358","CENTER_NAME":"EARTH","ARG_OF_PERICENTER":"58.6717","RCS_SIZE":"LARGE","RA_OF_ASC_NODE":"337.7424","SEMIMAJOR_AXIS":"6797.896","DECAY_DATE":null,"GP_ID":"196490563","PERIOD":"92.965","LAUNCH_DATE":"2022-01-06","OBJECT_TYPE":"PAYLOAD","NORAD_CAT_ID":"50839","TLE_LINE2":"2 50839  53.2147 337.7424 0001567  58.6717  32.6253 15.48962852  8371","REF_FRAME":"TEME","OBJECT_ID":"2022-001AN","REV_AT_EPOCH":"837","BSTAR":"-0.00018064000000","ELEMENT_SET_NO":"999","FILE":"3310524","MEAN_ANOMALY":"32.6253","INCLINATION":"53.2147","TLE_LINE1":"1 50839U 22001AN  22051.91667824 -.00010358  00000-0 -18064-3 0  9994","MEAN_MOTION":"15.48962852"},{"DECAY_DATE":null,"SEMIMAJOR_AXIS":"6797.933","ARG_OF_PERICENTER":"34.8813","RA_OF_ASC_NODE":"337.7330","RCS_SIZE":"LARGE","MEAN_MOTION_DOT":"-0.00004296","CENTER_NAME":"EARTH","SITE":"AFETR","MEAN_MOTION_DDOT":"0.0000000000000","EPOCH":"2022-02-20T22:00:00.999936","MEAN_ELEMENT_THEORY":"SGP4","ECCENTRICITY":"0.00017590","EPHEMERIS_TYPE":"0","PERIAPSIS":"418.603","APOAPSIS":"420.994","OBJECT_NAME":"STARLINK-3295","TIME_SYSTEM":"UTC","CLASSIFICATION_TYPE":"U","COUNTRY_CODE":"US","MEAN_MOTION":"15.48949988","TLE_LINE1":"1 50840U 22001AP  22051.91667824 -.00004296  00000-0 -70137-4 0  9990","FILE":"3310526","MEAN_ANOMALY":"64.3159","INCLINATION":"53.2177","REV_AT_EPOCH":"838","OBJECT_ID":"2022-001AP","ELEMENT_SET_NO":"999","BSTAR":"-0.00007013700000","TLE_LINE2":"2 50840  53.2177 337.7330 0001759  34.8813  64.3159 15.48949988  8381","REF_FRAME":"TEME","OBJECT_TYPE":"PAYLOAD","NORAD_CAT_ID":"50840","LAUNCH_DATE":"2022-01-06","PERIOD":"92.966","GP_ID":"196490592"},{"CENTER_NAME":"EARTH","MEAN_MOTION_DOT":"-0.00004925","MEAN_MOTION_DDOT":"0.0000000000000","SITE":"AFETR","DECAY_DATE":null,"SEMIMAJOR_AXIS":"6797.932","RCS_SIZE":"LARGE","RA_OF_ASC_NODE":"337.7363","ARG_OF_PERICENTER":"33.1320","APOAPSIS":"421.038","PERIAPSIS":"418.557","CLASSIFICATION_TYPE":"U","COUNTRY_CODE":"US","OBJECT_NAME":"STARLINK-3300","TIME_SYSTEM":"UTC","EPOCH":"2022-02-20T22:00:00.999936","EPHEMERIS_TYPE":"0","ECCENTRICITY":"0.00018250","MEAN_ELEMENT_THEORY":"SGP4","BSTAR":"-0.00008159700000","ELEMENT_SET_NO":"999","OBJECT_ID":"2022-001AQ","REV_AT_EPOCH":"369","REF_FRAME":"TEME","TLE_LINE2":"2 50841  53.2177 337.7363 0001825  33.1320  42.2600 15.48950372  3691","TLE_LINE1":"1 50841U 22001AQ  22051.91667824 -.00004925  00000-0 -81597-4 0  9992","MEAN_MOTION":"15.48950372","INCLINATION":"53.2177","MEAN_ANOMALY":"42.2600","FILE":"3310556","PERIOD":"92.966","GP_ID":"196515030","NORAD_CAT_ID":"50841","OBJECT_TYPE":"PAYLOAD","LAUNCH_DATE":"2022-01-06"},{"CLASSIFICATION_TYPE":"U","COUNTRY_CODE":"US","TIME_SYSTEM":"UTC","OBJECT_NAME":"STARLINK-3302","PERIAPSIS":"418.576","APOAPSIS":"421.025","EPHEMERIS_TYPE":"0","MEAN_ELEMENT_THEORY":"SGP4","ECCENTRICITY":"0.00018010","EPOCH":"2022-02-20T22:00:00.999936","SITE":"AFETR","MEAN_MOTION_DDOT":"0.0000000000000","CENTER_NAME":"EARTH","MEAN_MOTION_DOT":"-0.00003596","RA_OF_ASC_NODE":"337.7319","RCS_SIZE":"LARGE","ARG_OF_PERICENTER":"33.8691","SEMIMAJOR_AXIS":"6797.935","DECAY_DATE":null,"GP_ID":"196490577","PERIOD":"92.966","LAUNCH_DATE":"2022-01-06","NORAD_CAT_ID":"50842","OBJECT_TYPE":"PAYLOAD","REF_FRAME":"TEME","TLE_LINE2":"2 50842  53.2177 337.7319 0001801  33.8691  73.2636 15.48949392  8389","BSTAR":"-0.00005738100000","ELEMENT_SET_NO":"999","REV_AT_EPOCH":"838","OBJECT_ID":"2022-001AR","MEAN_ANOMALY":"73.2636","INCLINATION":"53.2177","FILE":"3310525","MEAN_MOTION":"15.48949392","TLE_LINE1":"1 50842U 22001AR  22051.91667824 -.00003596  00000-0 -57381-4 0  9990"},{"OBJECT_TYPE":"PAYLOAD","NORAD_CAT_ID":"50843","LAUNCH_DATE":"2022-01-06","PERIOD":"92.961","GP_ID":"196490600","MEAN_MOTION":"15.49035863","TLE_LINE1":"1 50843U 22001AS  22051.91667824  .00015145  00000-0  28251-3 0  9995","FILE":"3310533","INCLINATION":"53.2146","MEAN_ANOMALY":"8.9396","REV_AT_EPOCH":"830","OBJECT_ID":"2022-001AS","BSTAR":"0.00028251000000","ELEMENT_SET_NO":"999","TLE_LINE2":"2 50843  53.2146 337.7491 0001888  50.7627   8.9396 15.49035863  8309","REF_FRAME":"TEME","EPOCH":"2022-02-20T22:00:00.999936","MEAN_ELEMENT_THEORY":"SGP4","ECCENTRICITY":"0.00018880","EPHEMERIS_TYPE":"0","PERIAPSIS":"418.264","APOAPSIS":"420.831","TIME_SYSTEM":"UTC","OBJECT_NAME":"STARLINK-3325","COUNTRY_CODE":"US","CLASSIFICATION_TYPE":"U","SEMIMAJOR_AXIS":"6797.682","DECAY_DATE":null,"ARG_OF_PERICENTER":"50.7627","RA_OF_ASC_NODE":"337.7491","RCS_SIZE":"LARGE","MEAN_MOTION_DOT":"0.00015145","CENTER_NAME":"EARTH","SITE":"AFETR","MEAN_MOTION_DDOT":"0.0000000000000"},{"BSTAR":"-0.00580630000000","ELEMENT_SET_NO":"999","REV_AT_EPOCH":"838","OBJECT_ID":"2022-001AT","REF_FRAME":"TEME","TLE_LINE2":"2 50844  53.2172 337.7276 0001578  40.2772  90.5316 15.49170737  8388","MEAN_MOTION":"15.49170737","TLE_LINE1":"1 50844U 22001AT  22051.91667824 -.00309415  00000-0 -58063-2 0  9997","MEAN_ANOMALY":"90.5316","INCLINATION":"53.2172","FILE":"3310527","PERIOD":"92.953","GP_ID":"196490612","NORAD_CAT_ID":"50844","OBJECT_TYPE":"PAYLOAD","LAUNCH_DATE":"2022-01-06","CENTER_NAME":"EARTH","MEAN_MOTION_DOT":"-0.00309415","SITE":"AFETR","MEAN_MOTION_DDOT":"0.0000000000000","DECAY_DATE":null,"SEMIMAJOR_AXIS":"6797.288","RA_OF_ASC_NODE":"337.7276","RCS_SIZE":"LARGE","ARG_OF_PERICENTER":"40.2772","PERIAPSIS":"418.080","APOAPSIS":"420.225","COUNTRY_CODE":"US","CLASSIFICATION_TYPE":"U","TIME_SYSTEM":"UTC","OBJECT_NAME":"STARLINK-3326","EPOCH":"2022-02-20T22:00:00.999936","EPHEMERIS_TYPE":"0","ECCENTRICITY":"0.00015780","MEAN_ELEMENT_THEORY":"SGP4"},{"REF_FRAME":"TEME","TLE_LINE2":"2 50845  53.2172 337.7352 0001213  92.8225  76.9705 15.50021591  3667","ELEMENT_SET_NO":"999","BSTAR":"-0.01104500000000","OBJECT_ID":"2022-001AU","REV_AT_EPOCH":"366","INCLINATION":"53.2172","MEAN_ANOMALY":"76.9705","FILE":"3310556","TLE_LINE1":"1 50845U 22001AU  22051.91667824 -.00585386  00000-0 -11045-1 0  9999","MEAN_MOTION":"15.50021591","GP_ID":"196515531","PERIOD":"92.902","LAUNCH_DATE":"2022-01-06","NORAD_CAT_ID":"50845","OBJECT_TYPE":"PAYLOAD","MEAN_MOTION_DDOT":"0.0000000000000","SITE":"AFETR","CENTER_NAME":"EARTH","MEAN_MOTION_DOT":"-0.00585386","RCS_SIZE":"LARGE","RA_OF_ASC_NODE":"337.7352","ARG_OF_PERICENTER":"92.8225","DECAY_DATE":null,"SEMIMAJOR_AXIS":"6794.800","COUNTRY_CODE":"US","CLASSIFICATION_TYPE":"U","TIME_SYSTEM":"UTC","OBJECT_NAME":"STARLINK-3230","APOAPSIS":"417.489","PERIAPSIS":"415.841","EPHEMERIS_TYPE":"0","ECCENTRICITY":"0.00012130","MEAN_ELEMENT_THEORY":"SGP4","EPOCH":"2022-02-20T22:00:00.999936"},{"MEAN_ANOMALY":"104.1380","INCLINATION":"53.2176","FILE":"3310527","TLE_LINE1":"1 50846U 22001AV  22051.91667824 -.00522892  00000-0 -10017-1 0  9991","MEAN_MOTION":"15.49364693","REF_FRAME":"TEME","TLE_LINE2":"2 50846  53.2176 337.7279 0001740  34.4636 104.1380 15.49364693  8381","BSTAR":"-0.01001700000000","ELEMENT_SET_NO":"999","OBJECT_ID":"2022-001AV","REV_AT_EPOCH":"838","LAUNCH_DATE":"2022-01-06","NORAD_CAT_ID":"50846","OBJECT_TYPE":"PAYLOAD","GP_ID":"196490616","PERIOD":"92.941","RCS_SIZE":"LARGE","RA_OF_ASC_NODE":"337.7279","ARG_OF_PERICENTER":"34.4636","DECAY_DATE":null,"SEMIMAJOR_AXIS":"6796.720","MEAN_MOTION_DDOT":"0.0000000000000","SITE":"AFETR","CENTER_NAME":"EARTH","MEAN_MOTION_DOT":"-0.00522892","EPHEMERIS_TYPE":"0","ECCENTRICITY":"0.00017400","MEAN_ELEMENT_THEORY":"SGP4","EPOCH":"2022-02-20T22:00:00.999936","CLASSIFICATION_TYPE":"U","COUNTRY_CODE":"US","OBJECT_NAME":"STARLINK-3308","TIME_SYSTEM":"UTC","APOAPSIS":"419.768","PERIAPSIS":"417.403"},{"COUNTRY_CODE":"US","CLASSIFICATION_TYPE":"U","OBJECT_NAME":"STARLINK-3319","TIME_SYSTEM":"UTC","PERIAPSIS":"418.711","APOAPSIS":"420.696","EPHEMERIS_TYPE":"0","MEAN_ELEMENT_THEORY":"SGP4","ECCENTRICITY":"0.00014600","EPOCH":"2022-02-20T22:00:00.999936","SITE":"AFETR","MEAN_MOTION_DDOT":"0.0000000000000","CENTER_NAME":"EARTH","MEAN_MOTION_DOT":"-0.00021034","RA_OF_ASC_NODE":"337.7427","RCS_SIZE":"LARGE","ARG_OF_PERICENTER":"48.9447","DECAY_DATE":null,"SEMIMAJOR_AXIS":"6797.839","GP_ID":"196490646","PERIOD":"92.964","LAUNCH_DATE":"2022-01-06","NORAD_CAT_ID":"50847","OBJECT_TYPE":"PAYLOAD","REF_FRAME":"TEME","TLE_LINE2":"2 50847  53.2150 337.7427 0001460  48.9447  34.4619 15.48982433  8307","ELEMENT_SET_NO":"999","BSTAR":"-0.00037548000000","REV_AT_EPOCH":"830","OBJECT_ID":"2022-001AW","INCLINATION":"53.2150","MEAN_ANOMALY":"34.4619","FILE":"3310530","MEAN_MOTION":"15.48982433","TLE_LINE1":"1 50847U 22001AW  22051.91667824 -.00021034  00000-0 -37548-3 0  9994"},{"SITE":"AFETR","MEAN_MOTION_DDOT":"0.0000000000000","MEAN_MOTION_DOT":"-0.00533367","CENTER_NAME":"EARTH","ARG_OF_PERICENTER":"44.6901","RA_OF_ASC_NODE":"337.7251","RCS_SIZE":"LARGE","DECAY_DATE":null,"SEMIMAJOR_AXIS":"6796.461","OBJECT_NAME":"STARLINK-3315","TIME_SYSTEM":"UTC","CLASSIFICATION_TYPE":"U","COUNTRY_CODE":"US","PERIAPSIS":"417.340","APOAPSIS":"419.313","ECCENTRICITY":"0.00014510","MEAN_ELEMENT_THEORY":"SGP4","EPHEMERIS_TYPE":"0","EPOCH":"2022-02-20T22:00:00.999936","TLE_LINE2":"2 50848  53.2172 337.7251 0001451  44.6901 101.7171 15.49453237  8414","REF_FRAME":"TEME","REV_AT_EPOCH":"841","OBJECT_ID":"2022-001AX","BSTAR":"-0.01020000000000","ELEMENT_SET_NO":"999","FILE":"3310534","MEAN_ANOMALY":"101.7171","INCLINATION":"53.2172","MEAN_MOTION":"15.49453237","TLE_LINE1":"1 50848U 22001AX  22051.91667824 -.00533367  00000-0 -10200-1 0  9996","GP_ID":"196490665","PERIOD":"92.936","LAUNCH_DATE":"2022-01-06","OBJECT_TYPE":"PAYLOAD","NORAD_CAT_ID":"50848"}];
